COMMENT,ORIGINATOR,NORAD_CAT_ID,OBJECT_NAME,OBJECT_TYPE,CLASSIFICATION_TYPE,INTLDES,EPOCH,EPOCH_MICROSECONDS,MEAN_MOTION,ECCENTRICITY,INCLINATION,RA_OF_ASC_NODE,ARG_OF_PERICENTER,MEAN_ANOMALY,EPHEMERIS_TYPE,ELEMENT_SET_NO,REV_AT_EPOCH,BSTAR,MEAN_MOTION_DOT,MEAN_MOTION_DDOT,FILE,TLE_LINE0,TLE_LINE1,TLE_LINE2,OBJECT_ID,OBJECT_NUMBER,SEMIMAJOR_AXIS,PERIOD,APOGEE,PERIGEE
GENERATED VIA SPACETRACK.ORG API,18 SPCS,41616,FLOCK 2P 5,PAYLOAD,U,16040T,12/19/2018 19:11,390880,15.24909821,0.0008916,97.3976,56.6099,314.361,45.6896,0,999,13850,5.62E-05,1.33E-05,0,2380904,0 FLOCK 2P 5,1 41616U 16040T   18353.79999295 +.00001327 +00000-0 +56172-4 0  9996,2 41616 097.3976 056.6099 0008916 314.3610 045.6896 15.24909821138504,2016-040T,41616,6869.193,94.431,497.182,484.933
GENERATED VIA SPACETRACK.ORG API,18 SPCS,41616,FLOCK 2P 5,PAYLOAD,U,16040T,12/20/2018 10:56,750336,15.24912337,0.0008879,97.3975,57.2582,311.7024,48.3454,0,999,13860,6.06E-05,1.44E-05,0,2381070,0 FLOCK 2P 5,1 41616U 16040T   18354.45618924 +.00001438 +00000-0 +60618-4 0  9990,2 41616 097.3975 057.2582 0008879 311.7024 048.3454 15.24912337138602,2016-040T,41616,6869.185,94.431,497.149,484.951
GENERATED VIA SPACETRACK.ORG API,18 SPCS,41616,FLOCK 2P 5,PAYLOAD,U,16040T,12/20/2018 21:58,479232,15.24913544,0.0008863,97.3974,57.7119,309.8576,50.1882,0,999,13867,5.97E-05,1.42E-05,0,2381511,0 FLOCK 2P 5,1 41616U 16040T   18354.91552638 +.00001416 +00000-0 +59743-4 0  9993,2 41616 097.3974 057.7119 0008863 309.8576 050.1882 15.24913544138679,2016-040T,41616,6869.182,94.431,497.135,484.958
GENERATED VIA SPACETRACK.ORG API,18 SPCS,41616,FLOCK 2P 5,PAYLOAD,U,16040T,12/21/2018 10:34,706144,15.24915165,0.0008833,97.3973,58.2305,307.7076,52.336,0,999,13875,6.06E-05,1.44E-05,0,2381461,0 FLOCK 2P 5,1 41616U 16040T   18355.44048271  .00001438  00000-0  60620-4 0  9995,2 41616  97.3973  58.2305 0008833 307.7076  52.3360 15.24915165138755,2016-040T,41616,6869.177,94.431,497.109,484.974
GENERATED VIA SPACETRACK.ORG API,18 SPCS,41616,FLOCK 2P 5,PAYLOAD,U,16040T,12/21/2018 15:17,312512,15.24914774,0.0008821,97.3973,58.4249,306.8016,53.2412,0,999,13878,5.41E-05,1.28E-05,0,2381637,0 FLOCK 2P 5,1 41616U 16040T   18355.63734158 +.00001275 +00000-0 +54093-4 0  9998,2 41616 097.3973 058.4249 0008821 306.8016 053.2412 15.24914774138781,2016-040T,41616,6869.178,94.431,497.102,484.984
GENERATED VIA SPACETRACK.ORG API,18 SPCS,41616,FLOCK 2P 5,PAYLOAD,U,16040T,12/22/2018 11:46,56288,15.24917261,0.0008782,97.3972,59.2676,303.358,56.6817,0,999,13891,5.46E-05,1.29E-05,0,2381952,0 FLOCK 2P 5,1 41616U 16040T   18356.49039417  .00001288  00000-0  54592-4 0  9997,2 41616  97.3972  59.2676 0008782 303.3580  56.6817 15.24917261138912,2016-040T,41616,6869.17,94.431,497.068,485.003
GENERATED VIA SPACETRACK.ORG API,18 SPCS,41616,FLOCK 2P 5,PAYLOAD,U,16040T,12/22/2018 19:38,599936,15.24918668,0.0008771,97.3971,59.5917,302.0086,58.0299,0,999,13896,5.77E-05,1.37E-05,0,2382545,0 FLOCK 2P 5,1 41616U 16040T   18356.81849074 +.00001365 +00000-0 +57679-4 0  9996,2 41616 097.3971 059.5917 0008771 302.0086 058.0299 15.24918668138964,2016-040T,41616,6869.166,94.431,497.056,485.006
GENERATED VIA SPACETRACK.ORG API,18 SPCS,41616,FLOCK 2P 5,PAYLOAD,U,16040T,12/23/2018 19:16,199776,15.24921362,0.000873,97.397,60.564,297.9828,62.0526,0,999,13911,5.68E-05,1.34E-05,0,2382718,0 FLOCK 2P 5,1 41616U 16040T   18357.80278009  .00001342  00000-0  56779-4 0  9995,2 41616  97.3970  60.5640 0008730 297.9828  62.0526 15.24921362139110,2016-040T,41616,6869.158,94.431,497.02,485.026
GENERATED VIA SPACETRACK.ORG API,18 SPCS,41616,FLOCK 2P 5,PAYLOAD,U,16040T,12/23/2018 22:24,188896,15.249217,0.0008728,97.3969,60.6936,297.3956,62.6394,0,999,13913,5.59E-05,1.32E-05,0,2382764,0 FLOCK 2P 5,1 41616U 16040T   18357.93401839 +.00001322 +00000-0 +55949-4 0  9994,2 41616 097.3969 060.6936 0008728 297.3956 062.6394 15.24921700139137,2016-040T,41616,6869.157,94.431,497.017,485.027
GENERATED VIA SPACETRACK.ORG API,18 SPCS,41616,FLOCK 2P 5,PAYLOAD,U,16040T,12/24/2018 22:02,661728,15.24923597,0.0008694,97.3968,61.6659,293.3038,66.7284,0,999,13928,4.96E-05,1.16E-05,0,2383228,0 FLOCK 2P 5,1 41616U 16040T   18358.91830627 +.00001163 +00000-0 +49557-4 0  9995,2 41616 097.3968 061.6659 0008694 293.3038 066.7284 15.24923597139283,2016-040T,41616,6869.151,94.43,496.988,485.044
GENERATED VIA SPACETRACK.ORG API,18 SPCS,41616,FLOCK 2P 5,PAYLOAD,U,16040T,12/25/2018 2:45,132448,15.2492409,0.0008689,97.3967,61.8604,292.4767,67.555,0,999,13931,4.90E-05,1.15E-05,0,2383376,0 FLOCK 2P 5,1 41616U 16040T   18359.11516357  .00001149  00000-0  49012-4 0  9999,2 41616  97.3967  61.8604 0008689 292.4767  67.5550 15.24924090139315,2016-040T,41616,6869.15,94.43,496.983,485.046
GENERATED VIA SPACETRACK.ORG API,18 SPCS,41616,FLOCK 2P 5,PAYLOAD,U,16040T,12/25/2018 21:39,31744,15.24925262,0.0008667,97.3967,62.6382,289.1968,70.8332,0,999,13943,4.35E-05,1.01E-05,0,2383725,0 FLOCK 2P 5,1 41616U 16040T   18359.90259296 +.00001012 +00000-0 +43502-4 0  9999,2 41616 097.3967 062.6382 0008667 289.1968 070.8332 15.24925262139439,2016-040T,41616,6869.146,94.43,496.965,485.058
GENERATED VIA SPACETRACK.ORG API,18 SPCS,41616,FLOCK 2P 5,PAYLOAD,U,16040T,12/26/2018 3:57,961600,15.24925989,0.000866,97.3966,62.8974,288.045,71.9844,0,999,13947,4.38E-05,1.02E-05,0,2383863,0 FLOCK 2P 5,1 41616U 16040T   18360.16506900  .00001018  00000-0  43761-4 0  9999,2 41616  97.3966  62.8974 0008660 288.0450  71.9844 15.24925989139474,2016-040T,41616,6869.144,94.43,496.958,485.061
GENERATED VIA SPACETRACK.ORG API,18 SPCS,41616,FLOCK 2P 5,PAYLOAD,U,16040T,12/26/2018 19:42,775008,15.24927779,0.0008648,97.3966,63.5456,285.4055,74.6227,0,999,13957,4.56E-05,1.06E-05,0,2384558,0 FLOCK 2P 5,1 41616U 16040T   18360.82125897 +.00001064 +00000-0 +45588-4 0  9994,2 41616 097.3966 063.5456 0008648 285.4055 074.6227 15.24927779139570,2016-040T,41616,6869.139,94.43,496.944,485.063
GENERATED VIA SPACETRACK.ORG API,18 SPCS,41616,FLOCK 2P 5,PAYLOAD,U,16040T,12/27/2018 9:53,60160,15.24929417,0.0008638,97.3966,64.129,282.9287,77.0986,0,999,13966,4.75E-05,1.11E-05,0,2384740,0 FLOCK 2P 5,1 41616U 16040T   18361.41182940  .00001113  00000-0  47544-4 0  9991,2 41616  97.3966  64.1290 0008638 282.9287  77.0986 15.24929417139661,2016-040T,41616,6869.134,94.43,496.932,485.065
GENERATED VIA SPACETRACK.ORG API,18 SPCS,41616,FLOCK 2P 5,PAYLOAD,U,16040T,12/27/2018 11:27,534848,15.2492955,0.0008636,97.3965,64.1938,282.666,77.3612,0,999,13967,4.74E-05,1.11E-05,0,2384993,0 FLOCK 2P 5,1 41616U 16040T   18361.47744832 +.00001109 +00000-0 +47383-4 0  9997,2 41616 097.3965 064.1938 0008636 282.6660 077.3612 15.24929550139677,2016-040T,41616,6869.133,94.43,496.931,485.066
GENERATED VIA SPACETRACK.ORG API,18 SPCS,41616,FLOCK 2P 5,PAYLOAD,U,16040T,12/27/2018 20:54,365696,15.24930442,0.0008632,97.3965,64.5827,281.0212,79.0055,0,999,13973,4.73E-05,1.11E-05,0,2385354,0 FLOCK 2P 5,1 41616U 16040T   18361.87116164 +.00001107 +00000-0 +47300-4 0  9999,2 41616 097.3965 064.5827 0008632 281.0212 079.0055 15.24930442139739,2016-040T,41616,6869.131,94.43,496.925,485.066
GENERATED VIA SPACETRACK.ORG API,18 SPCS,41616,FLOCK 2P 5,PAYLOAD,U,16040T,12/28/2018 9:30,88032,15.2493218,0.0008626,97.3964,65.1013,278.746,81.2801,0,999,13981,5.07E-05,1.19E-05,0,2385545,0 FLOCK 2P 5,1 41616U 16040T   18362.39611213 +.00001191 +00000-0 +50681-4 0  9991,2 41616 097.3964 065.1013 0008626 278.7460 081.2801 15.24932180139817,2016-040T,41616,6869.126,94.43,496.916,485.065
GENERATED VIA SPACETRACK.ORG API,18 SPCS,41616,FLOCK 2P 5,PAYLOAD,U,16040T,12/28/2018 20:31,314944,15.2493336,0.0008629,97.3963,65.555,276.8512,83.1743,0,999,13988,5.10E-05,1.20E-05,0,2385528,0 FLOCK 2P 5,1 41616U 16040T   18362.85544346  .00001200  00000-0  51042-4 0  9997,2 41616  97.3963  65.5550 0008629 276.8512  83.1743 15.24933360139880,2016-040T,41616,6869.122,94.43,496.914,485.06
GENERATED VIA SPACETRACK.ORG API,18 SPCS,41616,FLOCK 2P 5,PAYLOAD,U,16040T,12/28/2018 22:06,794816,15.24933228,0.0008634,97.3963,65.6197,276.5904,83.4351,0,999,13989,4.95E-05,1.16E-05,0,2385921,0 FLOCK 2P 5,1 41616U 16040T   18362.92106244 +.00001161 +00000-0 +49470-4 0  9994,2 41616 097.3963 065.6197 0008634 276.5904 083.4351 15.24933228139898,2016-040T,41616,6869.122,94.43,496.918,485.057
GENERATED VIA SPACETRACK.ORG API,18 SPCS,41616,FLOCK 2P 5,PAYLOAD,U,16040T,12/29/2018 9:07,918912,15.24936101,0.0008636,97.3963,66.0734,274.7075,85.3177,0,999,13996,6.05E-05,1.44E-05,0,2386058,0 FLOCK 2P 5,1 41616U 16040T   18363.38039258 +.00001437 +00000-0 +60538-4 0  9999,2 41616 097.3963 066.0734 0008636 274.7075 085.3177 15.24936101139969,2016-040T,41616,6869.114,94.43,496.911,485.047
GENERATED VIA SPACETRACK.ORG API,18 SPCS,41616,FLOCK 2P 5,PAYLOAD,U,16040T,12/29/2018 21:43,424384,15.24938711,0.000864,97.3962,66.5919,272.5339,87.491,0,999,14004,6.74E-05,1.61E-05,0,2386252,0 FLOCK 2P 5,1 41616U 16040T   18363.90534056 +.00001607 +00000-0 +67367-4 0  9999,2 41616 097.3962 066.5919 0008640 272.5339 087.4910 15.24938711140040,2016-040T,41616,6869.106,94.43,496.906,485.036
GENERATED VIA SPACETRACK.ORG API,18 SPCS,41616,FLOCK 2P 5,PAYLOAD,U,16040T,12/30/2018 4:01,172800,15.2493972,0.0008648,97.3962,66.8512,271.4789,88.5458,0,999,14008,6.85E-05,1.64E-05,0,2386229,0 FLOCK 2P 5,1 41616U 16040T   18364.16781450  .00001636  00000-0  68535-4 0  9990,2 41616  97.3962  66.8512 0008648 271.4789  88.5458 15.24939720140081,2016-040T,41616,6869.103,94.429,496.908,485.028
GENERATED VIA SPACETRACK.ORG API,18 SPCS,41616,FLOCK 2P 5,PAYLOAD,U,16040T,12/30/2018 8:45,538112,15.24939737,0.0008644,97.3962,67.0457,270.6307,89.394,0,999,14011,6.56E-05,1.56E-05,0,2386255,0 FLOCK 2P 5,1 41616U 16040T   18364.36467058 +.00001564 +00000-0 +65624-4 0  9993,2 41616 097.3962 067.0457 0008644 270.6307 089.3940 15.24939737140112,2016-040T,41616,6869.103,94.429,496.906,485.03
